ONEWEB-0395             
1 50475U 21132G   25264.22092997  .00000281  00000+0  75718-3 0  9990
2 50475  87.8783  74.6597 0001881  95.6262 264.5080 13.11420438180461
ONEWEB-0396             
1 50476U 21132H   25264.10903761 -.00000027  00000+0 -10143-3 0  9999
2 50476  87.9205  28.8806 0001810  95.5462 264.5877 13.18684247186174
ONEWEB-0397             
1 50477U 21132J   25264.27564410  .00000063  00000+0  12737-3 0  9991
2 50477  87.9202  28.8486 0001667  91.8822 268.2501 13.18686313186176
ONEWEB-0398             
1 50478U 21132K   25264.18870105 -.00000522  00000+0 -15079-2 0  9996
2 50478  87.8786  74.6323 0001794 103.9852 256.1475 13.11415227180358
ONEWEB-0399             
1 50479U 21132L   25264.17515226  .00000191  00000+0  50227-3 0  9991
2 50479  87.8778  74.6558 0002051  79.1377 280.9982 13.11414496180347
ONEWEB-0400             
1 50480U 21132M   25263.87481353 -.00000019  00000+0 -80329-4 0  9990
2 50480  87.9200  28.9181 0001768 105.4906 254.6422 13.18686052186113
ONEWEB-0401             
1 50481U 21132N   25264.29873850  .00000090  00000+0  19554-3 0  9993
2 50481  87.9204  28.8307 0001579  94.3431 265.7882 13.18687515186170
ONEWEB-0402             
1 50482U 21132P   25264.11070179  .00000000  00000+0 -31612-4 0  9990
2 50482  87.9203  28.8612 0001194  82.4375 277.6893 13.18686768186170
